[{"OBJECT_NAME":"STARLINK-5407","OBJECT_ID":"2022-177AQ","EPOCH":"2026-03-09T22:00:01.999584","MEAN_MOTION":15.11184678,"ECCENTRICITY":0.00016124,"INCLINATION":42.9996,"RA_OF_ASC_NODE":118.9712,"ARG_OF_PERICENTER":237.2667,"MEAN_ANOMALY":16.9578,"EPHEMERIS_TYPE":0,"CLASSIFICATION_TYPE":"U","NORAD_CAT_ID":54858,"ELEMENT_SET_NO":999,"REV_AT_EPOCH":557,"BSTAR":0.0032943061,"MEAN_MOTION_DOT":0.00056497,"MEAN_MOTION_DDOT":0},{"OBJECT_NAME":"PIESAT B","OBJECT_ID":"2023-047B","EPOCH":"2026-03-09T13:45:37.197216","MEAN_MOTION":15.14300167,"ECCENTRICITY":0.0001556,"INCLINATION":97.5017,"RA_OF_ASC_NODE":257.1462,"ARG_OF_PERICENTER":107.7309,"MEAN_ANOMALY":252.4093,"EPHEMERIS_TYPE":0,"CLASSIFICATION_TYPE":"U","NORAD_CAT_ID":56154,"ELEMENT_SET_NO":999,"REV_AT_EPOCH":16272,"BSTAR":0.00018082,"MEAN_MOTION_DOT":3.244e-5,"MEAN_MOTION_DDOT":0}]
